[{"OBJECT_NAME":"YAOGAN-40 01A","OBJECT_ID":"2023-139A","EPOCH":"2026-03-09T23:20:31.440768","MEAN_MOTION":14.12429316,"ECCENTRICITY":0.00020937,"INCLINATION":85.9907,"RA_OF_ASC_NODE":304.5051,"ARG_OF_PERICENTER":91.437,"MEAN_ANOMALY":268.7053,"EPHEMERIS_TYPE":0,"CLASSIFICATION_TYPE":"U","NORAD_CAT_ID":57830,"ELEMENT_SET_NO":999,"REV_AT_EPOCH":12869,"BSTAR":6.725684e-5,"MEAN_MOTION_DOT":1.43e-6,"MEAN_MOTION_DDOT":0},{"OBJECT_NAME":"SL-16 DEB","OBJECT_ID":"1992-093GM","EPOCH":"2026-03-09T09:42:43.354080","MEAN_MOTION":13.89672792,"ECCENTRICITY":0.01500729,"INCLINATION":70.8164,"RA_OF_ASC_NODE":176.4166,"ARG_OF_PERICENTER":75.9458,"MEAN_ANOMALY":351.9398,"EPHEMERIS_TYPE":0,"CLASSIFICATION_TYPE":"U","NORAD_CAT_ID":22502,"ELEMENT_SET_NO":999,"REV_AT_EPOCH":68048,"BSTAR":0.00021743705,"MEAN_MOTION_DOT":2.47e-6,"MEAN_MOTION_DDOT":0}]
